{
    "links": {
        "self": "http://www.neowsapp.com/rest/v1/neo/3397995?api_key=iIulBulltgU6a56xZRHN4H3l9WmuAYTsLGpBGhQ2"
    },
    "id": "3397995",
    "neo_reference_id": "3397995",
    "name": "(2007 XF18)",
    "designation": "2007 XF18",
    "nasa_jpl_url": "http://ssd.jpl.nasa.gov/sbdb.cgi?sstr=3397995",
    "absolute_magnitude_h": 20.5,
    "estimated_diameter": {
        "kilometers": {
            "estimated_diameter_min": 0.2111324448,
            "estimated_diameter_max": 0.4721064988
        },
        "meters": {
            "estimated_diameter_min": 211.1324447897,
            "estimated_diameter_max": 472.1064988055
        },
        "miles": {
            "estimated_diameter_min": 0.1311915784,
            "estimated_diameter_max": 0.2933532873
        },
        "feet": {
            "estimated_diameter_min": 692.6917701639,
            "estimated_diameter_max": 1548.9058855411
        }
    },
    "is_potentially_hazardous_asteroid": false,
    "close_approach_data": [
        {
            "close_approach_date": "2007-12-05",
            "close_approach_date_full": "2007-Dec-05 19:07",
            "epoch_date_close_approach": 1196881620000,
            "relative_velocity": {
                "kilometers_per_second": "31.9787837237",
                "kilometers_per_hour": "115123.6214053808",
                "miles_per_hour": "71533.3413115823"
            },
            "miss_distance": {
                "astronomical": "0.1482649254",
                "lunar": "57.6750559806",
                "kilometers": "22180117.035548898",
                "miles": "13782085.6420868724"
            },
            "orbiting_body": "Earth"
        },
        {
            "close_approach_date": "2009-05-28",
            "close_approach_date_full": "2009-May-28 09:23",
            "epoch_date_close_approach": 1243502580000,
            "relative_velocity": {
                "kilometers_per_second": "36.8394247195",
                "kilometers_per_hour": "132621.9289901986",
                "miles_per_hour": "82406.1091550487"
            },
            "miss_distance": {
                "astronomical": "0.3079541124",
                "lunar": "119.7941497236",
                "kilometers": "46069279.272780588",
                "miles": "28626122.7291565944"
            },
            "orbiting_body": "Earth"
        }
    ],
    "orbital_data": {
        "orbit_id": "11",
        "orbit_determination_date": "2017-04-06 09:04:56",
        "first_observation_date": "2007-12-12",
        "last_observation_date": "2007-12-31",
        "data_arc_in_days": 19,
        "observations_used": 33,
        "orbit_uncertainty": "8",
        "minimum_orbit_intersection": ".0891559",
        "jupiter_tisserand_invariant": "3.988",
        "epoch_osculation": "2454449.5",
        "eccentricity": ".4814261221725356",
        "semi_major_axis": "1.480685590315033",
        "inclination": "59.52216073048421",
        "ascending_node_longitude": "76.17303472138832",
        "orbital_period": "658.1012289371628",
        "perihelion_distance": ".7678448684129149",
        "perihelion_argument": "267.9728992643248",
        "aphelion_distance": "2.193526312217151",
        "perihelion_time": "2454375.219913444327",
        "mean_anomaly": "40.63330986819288",
        "mean_motion": ".547028305328349",
        "equinox": "J2000",
        "orbit_class": {
            "orbit_class_type": "APO",
            "orbit_class_description": "Near-Earth asteroid orbits which cross the Earth’s orbit similar to that of 1862 Apollo",
            "orbit_class_range": "a (semi-major axis) > 1.0 AU; q (perihelion) < 1.017 AU"
        }
    },
    "is_sentry_object": false
}